[{"OBJECT_NAME":"SJ 16-02","OBJECT_ID":"2016-043A","EPOCH":"2026-03-09T22:18:39.296736","MEAN_MOTION":14.93231549,"ECCENTRICITY":0.00086699,"INCLINATION":75.0004,"RA_OF_ASC_NODE":106.8267,"ARG_OF_PERICENTER":275.0544,"MEAN_ANOMALY":84.9655,"EPHEMERIS_TYPE":0,"CLASSIFICATION_TYPE":"U","NORAD_CAT_ID":41634,"ELEMENT_SET_NO":999,"REV_AT_EPOCH":52632,"BSTAR":0.0001182302,"MEAN_MOTION_DOT":1.208e-5,"MEAN_MOTION_DDOT":0},{"OBJECT_NAME":"FENGYUN 1C DEB","OBJECT_ID":"1999-025MT","EPOCH":"2026-03-09T21:02:02.442624","MEAN_MOTION":14.74130884,"ECCENTRICITY":0.01136959,"INCLINATION":98.7454,"RA_OF_ASC_NODE":163.3635,"ARG_OF_PERICENTER":282.2255,"MEAN_ANOMALY":202.4233,"EPHEMERIS_TYPE":0,"CLASSIFICATION_TYPE":"U","NORAD_CAT_ID":30018,"ELEMENT_SET_NO":999,"REV_AT_EPOCH":1720,"BSTAR":0.00065605178,"MEAN_MOTION_DOT":4.733e-5,"MEAN_MOTION_DDOT":0}]
